
[
    {
        "name": "United States",
        "dial_code": "+1",
        "code": "US"
    },
    {
        "name": "Russia",
        "dial_code": "+7",
        "code": "RU"
    },
    {
        "name": "Ukraine",
        "dial_code": "+380",
        "code": "UA"
    },
    {
        "name": "United Kingdom",
        "dial_code": "+44",
        "code": "GB"
    },
    {
        "name": "Germany",
        "dial_code": "+49",
        "code": "DE"
    },
    {
        "name": "France",
        "dial_code": "+33",
        "code": "FR"
    },
    {
        "name": "Canada",
        "dial_code": "+1",
        "code": "CA"
    },
    {
        "name": "Australia",
        "dial_code": "+61",
        "code": "AU"
    },
    {
        "name": "China",
        "dial_code": "+86",
        "code": "CN"
    },
    {
        "name": "India",
        "dial_code": "+91",
        "code": "IN"
    },
    {
        "name": "Brazil",
        "dial_code": "+55",
        "code": "BR"
    },
    {
        "name": "Mexico",
        "dial_code": "+52",
        "code": "MX"
    }
]
